TEVEL2-6                
1 63215U 25052F   26068.64958975  .00021046  00000+0  70909-3 0  9996
2 63215  97.4016 325.0381 0004769  95.6604 264.5181 15.30760889 54861
STARLINK-35973          
1 66632U 25271R   26068.47336867  .00024246  00000+0  82798-3 0  9990
2 66632  53.1577 140.9367 0000932  72.1712 287.9391 15.30203912 17493
